NORAD_CAT_ID,OBJECT_NAME,OBJECT_TYPE,EPOCH,MEAN_MOTION,ECCENTRICITY,INCLINATION,RA_OF_ASC_NODE,ARG_OF_PERICENTER,MEAN_ANOMALY,BSTAR,MEAN_MOTION_DOT,MEAN_MOTION_DDOT,TLE_LINE0,TLE_LINE1,TLE_LINE2,SEMIMAJOR_AXIS,PERIOD,APOGEE,PERIGEE,DECAYED
56791.0,STARLINK-5977,PAYLOAD,2024-04-11 22:07:36,14.98329211,0.0002955,69.9992,301.1574,270.7024,89.3796,-1.8061e-05,-3.08e-06,0.0,0 STARLINK-5977,1 56791U 23078AA  24102.92194671 -.00000308  00000-0 -18061-4 0  9999,2 56791  69.9992 301.1574 0002955 270.7024  89.3796 14.98329211 48316,6950.195,96.107,574.114,570.007,0.0
56791.0,STARLINK-5977,PAYLOAD,2024-04-12 14:08:56,14.98329937,0.0002898,69.9993,299.4742,269.8979,90.1848,-1.0826e-05,-2.22e-06,0.0,0 STARLINK-5977,1 56791U 23078AA  24103.58954545 -.00000222  00000-0 -10826-4 0  9992,2 56791  69.9993 299.4742 0002898 269.8979  90.1848 14.98329937 48411,6950.193,96.107,574.072,570.044,0.0
56791.0,STARLINK-5977,PAYLOAD,2024-04-12 22:09:37,14.98329786,0.0002907,69.9993,298.6325,270.1356,89.947,-1.1766e-05,-2.33e-06,0.0,0 STARLINK-5977,1 56791U 23078AA  24103.92334552 -.00000233  00000-0 -11766-4 0  9996,2 56791  69.9993 298.6325 0002907 270.1356  89.9470 14.98329786 48468,6950.194,96.107,574.079,570.038,0.0
56791.0,STARLINK-5977,PAYLOAD,2024-04-12 23:45:45,14.98330009,0.0002907,69.9993,298.4641,269.9885,90.0941,-8.6851e-06,-1.97e-06,0.0,0 STARLINK-5977,1 56791U 23078AA  24103.99010527 -.00000197  00000-0 -86851-5 0  9993,2 56791  69.9993 298.4641 0002907 269.9885  90.0941 14.98330009 48736,6950.193,96.107,574.078,570.037,0.0
56791.0,STARLINK-5977,PAYLOAD,2024-04-13 14:10:57,14.98326455,0.0002902,69.9991,296.9492,266.601,93.4817,-1.1526e-05,-2.31e-06,0.0,0 STARLINK-5977,1 56791U 23078AA  24104.59094783 -.00000231  00000-0 -11526-4 0  9991,2 56791  69.9991 296.9492 0002902 266.6010  93.4817 14.98326455 48560,6950.204,96.107,574.086,570.052,0.0
56791.0,STARLINK-5977,PAYLOAD,2024-04-13 20:35:30,14.9832594,0.0002877,69.9992,296.2759,264.0251,96.0581,-6.6129e-06,-1.72e-06,0.0,0 STARLINK-5977,1 56791U 23078AA  24104.85798844 -.00000172  00000-0 -66129-5 0  9993,2 56791  69.9992 296.2759 0002877 264.0251  96.0581 14.98325940 48600,6950.205,96.107,574.07,570.071,0.0
56791.0,STARLINK-5977,PAYLOAD,2024-04-14 12:36:50,14.98330473,0.0002893,69.9993,294.5925,263.151,96.932,1.7228e-05,1.13e-06,0.0,0 STARLINK-5977,1 56791U 23078AA  24105.52558549  .00000113  00000-0  17228-4 0  9992,2 56791  69.9993 294.5925 0002893 263.1510  96.9320 14.98330473 48969,6950.191,96.107,574.067,570.046,0.0
56791.0,STARLINK-5977,PAYLOAD,2024-04-14 22:13:38,14.98331538,0.0002921,69.9993,293.5826,264.8816,95.201,2.6675e-05,2.25e-06,0.0,0 STARLINK-5977,1 56791U 23078AA  24105.92614451  .00000225  00000-0  26675-4 0  9991,2 56791  69.9993 293.5826 0002921 264.8816  95.2010 14.98331538 48766,6950.188,96.107,574.083,570.023,0.0
56791.0,STARLINK-5977,PAYLOAD,2024-04-15 12:38:51,14.98330957,0.000299,69.999,292.0672,265.177,94.9048,4.0679e-05,3.92e-06,0.0,0 STARLINK-5977,1 56791U 23078AA  24106.52698385  .00000392  00000-0  40679-4 0  9991,2 56791  69.9990 292.0672 0002990 265.1770  94.9048 14.98330957 49116,6950.19,96.107,574.133,569.977,0.0
56791.0,STARLINK-5977,PAYLOAD,2024-04-15 14:14:59,14.98330462,0.0003006,69.999,291.899,265.5356,94.5459,3.2793e-05,2.98e-06,0.0,0 STARLINK-5977,1 56791U 23078AA  24106.59374433  .00000298  00000-0  32793-4 0  9996,2 56791  69.9990 291.8990 0003006 265.5356  94.5459 14.98330462 48863,6950.191,96.107,574.146,569.967,0.0
56791.0,STARLINK-5977,PAYLOAD,2024-04-15 20:39:31,14.98331411,0.0002999,69.999,291.2257,265.6341,94.4475,4.1924e-05,4.07e-06,0.0,0 STARLINK-5977,1 56791U 23078AA  24106.86078328  .00000407  00000-0  41924-4 0  9998,2 56791  69.9990 291.2257 0002999 265.6341  94.4475 14.98331411 48905,6950.189,96.107,574.138,569.969,0.0
56791.0,STARLINK-5977,PAYLOAD,2024-04-16 12:40:52,14.98331992,0.0002998,69.9991,289.5413,271.3146,88.7669,5.2605e-06,-3e-07,0.0,0 STARLINK-5977,1 56791U 23078AA  24107.52838344 -.00000030  00000-0  52605-5 0  9996,2 56791  69.9991 289.5413 0002998 271.3146  88.7669 14.98331992 49261,6950.187,96.107,574.135,569.968,0.0
56791.0,STARLINK-5977,PAYLOAD,2024-04-16 14:17:00,14.98332012,0.0003,69.9991,289.373,271.5086,88.5729,5.0209e-06,-3.3e-07,0.0,0 STARLINK-5977,1 56791U 23078AA  24107.59514333 -.00000033  00000-0  50209-5 0  9993,2 56791  69.9991 289.3730 0003000 271.5086  88.5729 14.98332012 49013,6950.187,96.107,574.137,569.967,0.0
56791.0,STARLINK-5977,PAYLOAD,2024-04-16 22:17:40,14.98338654,0.000299,69.9987,288.533,265.8068,94.2749,5.9191e-05,6.13e-06,0.0,0 STARLINK-5977,1 56791U 23078AA  24107.92893603  .00000613  00000-0  59191-4 0  9991,2 56791  69.9987 288.5330 0002990 265.8068  94.2749 14.98338654 49067,6950.166,96.106,574.109,569.953,0.0
56791.0,STARLINK-5977,PAYLOAD,2024-04-17 12:42:54,14.98321072,0.0003408,69.9992,287.0167,273.8913,86.1856,-0.00011407,-1.454e-05,0.0,0 STARLINK-5977,1 56791U 23078AA  24108.52979203 -.00001454  00000-0 -11407-3 0  9992,2 56791  69.9992 287.0167 0003408 273.8913  86.1856 14.98321072 49412,6950.221,96.108,574.454,569.717,0.0
56791.0,STARLINK-5977,PAYLOAD,2024-04-17 14:19:02,14.98321337,0.0003322,69.9991,286.8485,276.2978,83.7803,-0.00010713,-1.371e-05,0.0,0 STARLINK-5977,1 56791U 23078AA  24108.59655228 -.00001371  00000-0 -10713-3 0  9994,2 56791  69.9991 286.8485 0003322 276.2978  83.7803 14.98321337 49165,6950.22,96.108,574.394,569.776,0.0
56791.0,STARLINK-5977,PAYLOAD,2024-04-17 20:43:34,14.98322627,0.0002956,69.9989,286.1751,265.6801,94.402,-8.327e-05,-1.086e-05,0.0,0 STARLINK-5977,1 56791U 23078AA  24108.86359130 -.00001086  00000-0 -83270-4 0  9999,2 56791  69.9989 286.1751 0002956 265.6801  94.4020 14.98322627 49208,6950.216,96.107,574.135,570.026,0.0
56791.0,STARLINK-5977,PAYLOAD,2024-04-18 12:44:54,14.98330816,0.0003392,69.9979,284.4914,272.9477,87.1293,-4.0704e-05,-5.79e-06,0.0,0 STARLINK-5977,1 56791U 23078AA  24109.53118599 -.00000579  00000-0 -40704-4 0  9997,2 56791  69.9979 284.4914 0003392 272.9477  87.1293 14.98330816 49563,6950.19,96.107,574.413,569.698,0.0
56791.0,STARLINK-5977,PAYLOAD,2024-04-18 14:21:02,14.98333604,0.000319,69.9982,284.3227,271.4063,88.673,-1.4863e-05,-2.7e-06,0.0,0 STARLINK-5977,1 56791U 23078AA  24109.59794360 -.00000270  00000-0 -14863-4 0  9994,2 56791  69.9982 284.3227 0003190 271.4063  88.6730 14.98333604 49317,6950.182,96.107,574.264,569.83,0.0
56791.0,STARLINK-5977,PAYLOAD,2024-04-18 20:45:34,14.98339624,0.0003032,69.9986,283.6499,269.5102,90.5709,5.4276e-05,5.55e-06,0.0,0 STARLINK-5977,1 56791U 23078AA  24109.86497698  .00000555  00000-0  54276-4 0  9994,2 56791  69.9986 283.6499 0003032 269.5102  90.5709 14.98339624 49610,6950.163,96.106,574.135,569.921,0.0
56791.0,STARLINK-5977,PAYLOAD,2024-04-19 12:46:55,14.98322533,0.00029,69.9991,281.9666,266.7771,93.3057,7.5922e-05,8.13e-06,0.0,0 STARLINK-5977,1 56791U 23078AA  24110.53258692  .00000813  00000-0  75922-4 0  9997,2 56791  69.9991 281.9666 0002900 266.7771  93.3057 14.98322533 49716,6950.216,96.107,574.097,570.065,0.0
56791.0,STARLINK-5977,PAYLOAD,2024-04-19 14:23:03,14.98322105,0.0002913,69.9991,281.7983,266.413,93.6696,6.7696e-05,7.15e-06,0.0,0 STARLINK-5977,1 56791U 23078AA  24110.59934763  .00000715  00000-0  67696-4 0  9993,2 56791  69.9991 281.7983 0002913 266.4130  93.6696 14.98322105 49465,6950.217,96.108,574.107,570.058,0.0
56791.0,STARLINK-5977,PAYLOAD,2024-04-19 20:47:35,14.98325448,0.0002522,70.0003,281.1268,249.3686,110.7203,0.00012168,1.359e-05,0.0,0 STARLINK-5977,1 56791U 23078AA  24110.86638438  .00001359  00000-0  12168-3 0  9991,2 56791  70.0003 281.1268 0002522 249.3686 110.7203 14.98325448 49507,6950.207,96.107,573.825,570.319,0.0
56791.0,STARLINK-5977,PAYLOAD,2024-04-20 12:48:55,14.98340256,0.000261,70.0001,279.4433,251.8056,108.2819,4.5866e-05,4.54e-06,0.0,0 STARLINK-5977,1 56791U 23078AA  24111.53397519  .00000454  00000-0  45866-4 0  9995,2 56791  70.0001 279.4433 0002610 251.8056 108.2819 14.98340256 49864,6950.161,96.106,573.84,570.212,0.0
56791.0,STARLINK-5977,PAYLOAD,2024-04-20 14:25:03,14.98340352,0.0002612,70.0002,279.2749,251.8198,108.2677,4.6388e-05,4.61e-06,0.0,0 STARLINK-5977,1 56791U 23078AA  24111.60073467  .00000461  00000-0  46388-4 0  9994,2 56791  70.0002 279.2749 0002612 251.8198 108.2677 14.98340352 49614,6950.161,96.106,573.841,570.21,0.0
56791.0,STARLINK-5977,PAYLOAD,2024-04-20 19:13:26,14.98367429,0.0002745,70.0004,278.7705,249.5962,110.4902,-0.00040256,-4.897e-05,0.0,0 STARLINK-5977,1 56791U 23078AA  24111.80100688 -.00004897  00000-0 -40256-3 0  9998,2 56791  70.0004 278.7705 0002745 249.5962 110.4902 14.98367429 49904,6950.077,96.105,573.85,570.034,0.0
56791.0,STARLINK-5977,PAYLOAD,2024-04-20 20:49:35,14.98341966,0.0002762,70.0,278.602,258.8179,101.2669,6.8757e-05,7.28e-06,0.0,0 STARLINK-5977,1 56791U 23078AA  24111.86777133  .00000728  00000-0  68757-4 0  9993,2 56791  70.0000 278.6020 0002762 258.8179 101.2669 14.98341966 49659,6950.156,96.106,573.941,570.101,0.0
56791.0,STARLINK-5977,PAYLOAD,2024-04-21 14:27:05,14.98322209,0.0002381,70.0014,276.7535,232.6145,127.4798,-8.87e-06,-1.99e-06,0.0,0 STARLINK-5977,1 56791U 23078AA  24112.60214408 -.00000199  00000-0 -88700-5 0  9992,2 56791  70.0014 276.7535 0002381 232.6145 127.4798 14.98322209 49768,6950.217,96.107,573.737,570.427,0.0
56791.0,STARLINK-5977,PAYLOAD,2024-04-21 20:51:37,14.98325884,0.0002625,70.0002,276.0784,248.7953,111.2926,-9.4155e-06,-2.05e-06,0.0,0 STARLINK-5977,1 56791U 23078AA  24112.86918311 -.00000205  00000-0 -94155-5 0  9993,2 56791  70.0002 276.0784 0002625 248.7953 111.2926 14.98325884 49801,6950.206,96.107,573.895,570.246,0.0
56791.0,STARLINK-5977,PAYLOAD,2024-04-22 11:16:49,14.98330702,0.0002816,69.9999,274.5617,253.4783,106.6067,-9.425e-05,-1.217e-05,0.0,0 STARLINK-5977,1 56791U 23078AA  24113.47002158 -.00001217  00000-0 -94250-4 0  9993,2 56791  69.9999 274.5617 0002816 253.4783 106.6067 14.98330702 50156,6950.191,96.107,574.013,570.099,0.0
